[{"OBJECT_NAME":"QIANFAN-52","OBJECT_ID":"2024-232S","EPOCH":"2026-03-04T03:00:34.393248","MEAN_MOTION":13.51000585,"ECCENTRICITY":0.0014235,"INCLINATION":89.0051,"RA_OF_ASC_NODE":32.8913,"ARG_OF_PERICENTER":324.3845,"MEAN_ANOMALY":35.6355,"EPHEMERIS_TYPE":0,"CLASSIFICATION_TYPE":"U","NORAD_CAT_ID":62253,"ELEMENT_SET_NO":999,"REV_AT_EPOCH":7893,"BSTAR":9.2404e-5,"MEAN_MOTION_DOT":7.2e-7,"MEAN_MOTION_DDOT":0},{"OBJECT_NAME":"QIANFAN-53","OBJECT_ID":"2024-232T","EPOCH":"2026-03-04T02:30:54.472032","MEAN_MOTION":13.51003325,"ECCENTRICITY":0.0013167,"INCLINATION":89.0058,"RA_OF_ASC_NODE":33.0039,"ARG_OF_PERICENTER":326.2355,"MEAN_ANOMALY":33.7957,"EPHEMERIS_TYPE":0,"CLASSIFICATION_TYPE":"U","NORAD_CAT_ID":62254,"ELEMENT_SET_NO":999,"REV_AT_EPOCH":7889,"BSTAR":8.5363e-5,"MEAN_MOTION_DOT":6.7e-7,"MEAN_MOTION_DDOT":0},{"OBJECT_NAME":"QIANFAN-54","OBJECT_ID":"2024-232U","EPOCH":"2026-03-04T03:30:12.240864","MEAN_MOTION":13.51002729,"ECCENTRICITY":0.0003205,"INCLINATION":89.005,"RA_OF_ASC_NODE":32.6712,"ARG_OF_PERICENTER":41.4576,"MEAN_ANOMALY":318.6817,"EPHEMERIS_TYPE":0,"CLASSIFICATION_TYPE":"U","NORAD_CAT_ID":62255,"ELEMENT_SET_NO":999,"REV_AT_EPOCH":11040,"BSTAR":9.0555e-5,"MEAN_MOTION_DOT":7.0e-7,"MEAN_MOTION_DDOT":0},{"OBJECT_NAME":"QIANFAN-55","OBJECT_ID":"2025-016A","EPOCH":"2026-03-04T02:21:03.312864","MEAN_MOTION":13.50996162,"ECCENTRICITY":0.0019392,"INCLINATION":88.9693,"RA_OF_ASC_NODE":94.7935,"ARG_OF_PERICENTER":111.7293,"MEAN_ANOMALY":248.5925,"EPHEMERIS_TYPE":0,"CLASSIFICATION_TYPE":"U","NORAD_CAT_ID":62785,"ELEMENT_SET_NO":999,"REV_AT_EPOCH":5817,"BSTAR":6.3773e-5,"MEAN_MOTION_DOT":5.3e-7,"MEAN_MOTION_DDOT":0},{"OBJECT_NAME":"QIANFAN-56","OBJECT_ID":"2025-016B","EPOCH":"2026-03-04T02:44:38.021280","MEAN_MOTION":13.50998091,"ECCENTRICITY":0.0018023,"INCLINATION":88.9667,"RA_OF_ASC_NODE":94.6062,"ARG_OF_PERICENTER":113.6574,"MEAN_ANOMALY":246.6471,"EPHEMERIS_TYPE":0,"CLASSIFICATION_TYPE":"U","NORAD_CAT_ID":62786,"ELEMENT_SET_NO":999,"REV_AT_EPOCH":5822,"BSTAR":7.9045e-5,"MEAN_MOTION_DOT":6.3e-7,"MEAN_MOTION_DDOT":0},{"OBJECT_NAME":"QIANFAN-57","OBJECT_ID":"2025-016C","EPOCH":"2026-03-04T03:32:07.189152","MEAN_MOTION":13.50997052,"ECCENTRICITY":0.0001357,"INCLINATION":88.9698,"RA_OF_ASC_NODE":94.7816,"ARG_OF_PERICENTER":97.4933,"MEAN_ANOMALY":262.6373,"EPHEMERIS_TYPE":0,"CLASSIFICATION_TYPE":"U","NORAD_CAT_ID":62787,"ELEMENT_SET_NO":999,"REV_AT_EPOCH":5819,"BSTAR":0.00010058,"MEAN_MOTION_DOT":7.7e-7,"MEAN_MOTION_DDOT":0},{"OBJECT_NAME":"QIANFAN-58","OBJECT_ID":"2025-016D","EPOCH":"2026-03-04T02:50:33.317088","MEAN_MOTION":13.50998641,"ECCENTRICITY":0.0015993,"INCLINATION":88.9668,"RA_OF_ASC_NODE":94.5911,"ARG_OF_PERICENTER":106.7565,"MEAN_ANOMALY":253.5342,"EPHEMERIS_TYPE":0,"CLASSIFICATION_TYPE":"U","NORAD_CAT_ID":62788,"ELEMENT_SET_NO":999,"REV_AT_EPOCH":5823,"BSTAR":0.00010745,"MEAN_MOTION_DOT":8.2e-7,"MEAN_MOTION_DDOT":0},{"OBJECT_NAME":"QIANFAN-59","OBJECT_ID":"2025-016E","EPOCH":"2026-03-04T03:26:19.094784","MEAN_MOTION":13.50994505,"ECCENTRICITY":0.0016325,"INCLINATION":88.9691,"RA_OF_ASC_NODE":94.6815,"ARG_OF_PERICENTER":109.9995,"MEAN_ANOMALY":250.2916,"EPHEMERIS_TYPE":0,"CLASSIFICATION_TYPE":"U","NORAD_CAT_ID":62789,"ELEMENT_SET_NO":999,"REV_AT_EPOCH":5823,"BSTAR":7.6297e-5,"MEAN_MOTION_DOT":6.2e-7,"MEAN_MOTION_DDOT":0},{"OBJECT_NAME":"QIANFAN-60","OBJECT_ID":"2025-016F","EPOCH":"2026-03-04T02:27:04.880448","MEAN_MOTION":13.50992444,"ECCENTRICITY":0.0017907,"INCLINATION":88.9672,"RA_OF_ASC_NODE":94.6417,"ARG_OF_PERICENTER":107.1799,"MEAN_ANOMALY":253.1314,"EPHEMERIS_TYPE":0,"CLASSIFICATION_TYPE":"U","NORAD_CAT_ID":62790,"ELEMENT_SET_NO":999,"REV_AT_EPOCH":5821,"BSTAR":5.9203e-5,"MEAN_MOTION_DOT":5.1e-7,"MEAN_MOTION_DDOT":0},{"OBJECT_NAME":"QIANFAN-61","OBJECT_ID":"2025-016G","EPOCH":"2026-03-04T03:14:29.273856","MEAN_MOTION":13.50993849,"ECCENTRICITY":0.001683,"INCLINATION":88.9739,"RA_OF_ASC_NODE":94.8567,"ARG_OF_PERICENTER":106.4192,"MEAN_ANOMALY":253.8811,"EPHEMERIS_TYPE":0,"CLASSIFICATION_TYPE":"U","NORAD_CAT_ID":62791,"ELEMENT_SET_NO":999,"REV_AT_EPOCH":5823,"BSTAR":8.6878e-5,"MEAN_MOTION_DOT":6.8e-7,"MEAN_MOTION_DDOT":0},{"OBJECT_NAME":"QIANFAN-62","OBJECT_ID":"2025-016H","EPOCH":"2026-03-04T03:20:18.996000","MEAN_MOTION":13.50996555,"ECCENTRICITY":0.0018206,"INCLINATION":88.9686,"RA_OF_ASC_NODE":94.6806,"ARG_OF_PERICENTER":106.8352,"MEAN_ANOMALY":253.4798,"EPHEMERIS_TYPE":0,"CLASSIFICATION_TYPE":"U","NORAD_CAT_ID":62792,"ELEMENT_SET_NO":999,"REV_AT_EPOCH":5822,"BSTAR":9.4505e-5,"MEAN_MOTION_DOT":7.3e-7,"MEAN_MOTION_DDOT":0},{"OBJECT_NAME":"QIANFAN-63","OBJECT_ID":"2025-016J","EPOCH":"2026-03-04T02:09:15.727968","MEAN_MOTION":13.50995149,"ECCENTRICITY":0.0018236,"INCLINATION":88.9693,"RA_OF_ASC_NODE":94.6428,"ARG_OF_PERICENTER":111.755,"MEAN_ANOMALY":248.5544,"EPHEMERIS_TYPE":0,"CLASSIFICATION_TYPE":"U","NORAD_CAT_ID":62793,"ELEMENT_SET_NO":999,"REV_AT_EPOCH":5825,"BSTAR":8.3239e-5,"MEAN_MOTION_DOT":6.6e-7,"MEAN_MOTION_DDOT":0},{"OBJECT_NAME":"QIANFAN-64","OBJECT_ID":"2025-016K","EPOCH":"2026-03-04T03:08:33.852768","MEAN_MOTION":13.51003098,"ECCENTRICITY":0.0016173,"INCLINATION":88.9681,"RA_OF_ASC_NODE":94.6022,"ARG_OF_PERICENTER":105.2229,"MEAN_ANOMALY":255.0712,"EPHEMERIS_TYPE":0,"CLASSIFICATION_TYPE":"U","NORAD_CAT_ID":62794,"ELEMENT_SET_NO":999,"REV_AT_EPOCH":5825,"BSTAR":5.76e-5,"MEAN_MOTION_DOT":4.9e-7,"MEAN_MOTION_DDOT":0},{"OBJECT_NAME":"QIANFAN-65","OBJECT_ID":"2025-016L","EPOCH":"2026-03-04T03:02:30.552864","MEAN_MOTION":13.51008725,"ECCENTRICITY":0.0016061,"INCLINATION":88.9676,"RA_OF_ASC_NODE":94.6251,"ARG_OF_PERICENTER":106.7244,"MEAN_ANOMALY":253.5671,"EPHEMERIS_TYPE":0,"CLASSIFICATION_TYPE":"U","NORAD_CAT_ID":62795,"ELEMENT_SET_NO":999,"REV_AT_EPOCH":5823,"BSTAR":8.4215e-5,"MEAN_MOTION_DOT":6.7e-7,"MEAN_MOTION_DDOT":0},{"OBJECT_NAME":"QIANFAN-66","OBJECT_ID":"2025-016M","EPOCH":"2026-03-04T03:43:58.322496","MEAN_MOTION":13.50996876,"ECCENTRICITY":0.0017175,"INCLINATION":88.9695,"RA_OF_ASC_NODE":94.6083,"ARG_OF_PERICENTER":102.9218,"MEAN_ANOMALY":257.3852,"EPHEMERIS_TYPE":0,"CLASSIFICATION_TYPE":"U","NORAD_CAT_ID":62796,"ELEMENT_SET_NO":999,"REV_AT_EPOCH":5828,"BSTAR":8.8527e-5,"MEAN_MOTION_DOT":6.9e-7,"MEAN_MOTION_DDOT":0},{"OBJECT_NAME":"QIANFAN-67","OBJECT_ID":"2025-016N","EPOCH":"2026-03-04T03:49:48.956160","MEAN_MOTION":13.50995205,"ECCENTRICITY":0.0017116,"INCLINATION":88.9685,"RA_OF_ASC_NODE":94.6254,"ARG_OF_PERICENTER":108.9827,"MEAN_ANOMALY":251.3181,"EPHEMERIS_TYPE":0,"CLASSIFICATION_TYPE":"U","NORAD_CAT_ID":62797,"ELEMENT_SET_NO":999,"REV_AT_EPOCH":5825,"BSTAR":7.8403e-5,"MEAN_MOTION_DOT":6.3e-7,"MEAN_MOTION_DDOT":0},{"OBJECT_NAME":"QIANFAN-68","OBJECT_ID":"2025-016P","EPOCH":"2026-03-04T03:38:11.017824","MEAN_MOTION":13.51005217,"ECCENTRICITY":0.0017178,"INCLINATION":88.9689,"RA_OF_ASC_NODE":94.6744,"ARG_OF_PERICENTER":107.4324,"MEAN_ANOMALY":252.8707,"EPHEMERIS_TYPE":0,"CLASSIFICATION_TYPE":"U","NORAD_CAT_ID":62798,"ELEMENT_SET_NO":999,"REV_AT_EPOCH":5823,"BSTAR":0.00010459,"MEAN_MOTION_DOT":8.0e-7,"MEAN_MOTION_DDOT":0}]
