QIANFAN-52              
1 62253U 24232S   26063.12539807  .00000072  00000+0  92404-4 0  9994
2 62253  89.0051  32.8913 0014235 324.3845  35.6355 13.51000585 78935
QIANFAN-53              
1 62254U 24232T   26063.10479713  .00000067  00000+0  85363-4 0  9992
2 62254  89.0058  33.0039 0013167 326.2355  33.7957 13.51003325 78892
QIANFAN-54              
1 62255U 24232U   26063.14597501  .00000070  00000+0  90555-4 0  9996
2 62255  89.0050  32.6712 0003205  41.4576 318.6817 13.51002729110402
QIANFAN-55              
1 62785U 25016A   26063.09795501  .00000053  00000+0  63773-4 0  9992
2 62785  88.9693  94.7935 0019392 111.7293 248.5925 13.50996162 58176
QIANFAN-56              
1 62786U 25016B   26063.11432895  .00000063  00000+0  79045-4 0  9990
2 62786  88.9667  94.6062 0018023 113.6574 246.6471 13.50998091 58225
QIANFAN-57              
1 62787U 25016C   26063.14730543  .00000077  00000+0  10058-3 0  9998
2 62787  88.9698  94.7816 0001357  97.4933 262.6373 13.50997052 58199
QIANFAN-58              
1 62788U 25016D   26063.11844117  .00000082  00000+0  10745-3 0  9998
2 62788  88.9668  94.5911 0015993 106.7565 253.5342 13.50998641 58232
QIANFAN-59              
1 62789U 25016E   26063.14327656  .00000062  00000+0  76297-4 0  9999
2 62789  88.9691  94.6815 0016325 109.9995 250.2916 13.50994505 58231
QIANFAN-60              
1 62790U 25016F   26063.10213982  .00000051  00000+0  59203-4 0  9999
2 62790  88.9672  94.6417 0017907 107.1799 253.1314 13.50992444 58211
QIANFAN-61              
1 62791U 25016G   26063.13506104  .00000068  00000+0  86878-4 0  9990
2 62791  88.9739  94.8567 0016830 106.4192 253.8811 13.50993849 58238
QIANFAN-62              
1 62792U 25016H   26063.13910875  .00000073  00000+0  94505-4 0  9997
2 62792  88.9686  94.6806 0018206 106.8352 253.4798 13.50996555 58221
QIANFAN-63              
1 62793U 25016J   26063.08976537  .00000066  00000+0  83239-4 0  9993
2 62793  88.9693  94.6428 0018236 111.7550 248.5544 13.50995149 58253
QIANFAN-64              
1 62794U 25016K   26063.13094737  .00000049  00000+0  57600-4 0  9997
2 62794  88.9681  94.6022 0016173 105.2229 255.0712 13.51003098 58254
QIANFAN-65              
1 62795U 25016L   26063.12674251  .00000067  00000+0  84215-4 0  9994
2 62795  88.9676  94.6251 0016061 106.7244 253.5671 13.51008725 58239
QIANFAN-66              
1 62796U 25016M   26063.15553614  .00000069  00000+0  88527-4 0  9999
2 62796  88.9695  94.6083 0017175 102.9218 257.3852 13.50996876 58280
QIANFAN-67              
1 62797U 25016N   26063.15959440  .00000063  00000+0  78403-4 0  9993
2 62797  88.9685  94.6254 0017116 108.9827 251.3181 13.50995205 58258
QIANFAN-68              
1 62798U 25016P   26063.15151641  .00000080  00000+0  10459-3 0  9996
2 62798  88.9689  94.6744 0017178 107.4324 252.8707 13.51005217 58235
